sat03617
1 03617U 68112C   20046.84287069  .00000036  00000-0  16174-3 0  9992
2 03617  80.1800 202.3071 0044756  26.0853 136.8630 12.63367332358875
